{"type": "FeatureCollection", "features": [ {"type": "Feature", "properties": {"norad_id": 57401, "name": "TIANMU-1 09", "group": "weather", "lat": 21.676860226583518, "lon": 46.81919620177981, "alt_km": 476.9518033695067, "timestamp": "2025-12-26T21:25:52.649640+00:00", "meta": {"OBJECT_NAME": "TIANMU-1 09", "OBJECT_ID": "2023-101C", "EPOCH": "2025-12-26T15:03:01.556640", "MEAN_MOTION": 15.2828744, "ECCENTRICITY": 0.00061107, "INCLINATION": 97.2803, "RA_OF_ASC_NODE": 49.4721, "ARG_OF_PERICENTER": 45.4914, "MEAN_ANOMALY": 314.6824, "EPHEMERIS_TYPE": 0, "CLASSIFICATION_TYPE": "U", "NORAD_CAT_ID": 57401, "ELEMENT_SET_NO": 999, "REV_AT_EPOCH": 13527, "BSTAR": 0.00029821077, "MEAN_MOTION_DOT": 8.15e-05, "MEAN_MOTION_DDOT": 0}, "tle": {"line1": "1 57401U 23101C   25360.62710135  .00008150  00000+0  29821-3 0  9993", "line2": "2 57401  97.2803  49.4721 0006110  45.4914 314.6824 15.28287440135277"}}, "geometry": {"type": "Point", "coordinates": [46.81919620177981, 21.676860226583518]}}, {"type": "Feature", "properties": {"norad_id": 57402, "name": "TIANMU-1 10", "group": "weather", "lat": -13.556881210886063, "lon": -131.17183651386316, "alt_km": 490.37107526585805, "timestamp": "2025-12-26T21:25:52.649650+00:00", "meta": {"OBJECT_NAME": "TIANMU-1 10", "OBJECT_ID": "2023-101D", "EPOCH": "2025-12-26T14:18:06.573024", "MEAN_MOTION": 15.28278722, "ECCENTRICITY": 0.00078333, "INCLINATION": 97.2883, "RA_OF_ASC_NODE": 50.306, "ARG_OF_PERICENTER": 42.6013, "MEAN_ANOMALY": 317.5834, "EPHEMERIS_TYPE": 0, "CLASSIFICATION_TYPE": "U", "NORAD_CAT_ID": 57402, "ELEMENT_SET_NO": 999, "REV_AT_EPOCH": 13526, "BSTAR": 0.0002780445, "MEAN_MOTION_DOT": 7.594e-05, "MEAN_MOTION_DDOT": 0}, "tle": {"line1": "1 57402U 23101D   25360.59590941  .00007594  00000+0  27804-3 0  9991", "line2": "2 57402  97.2883  50.3060 0007833  42.6013 317.5834 15.28278722135260"}}, "geometry": {"type": "Point", "coordinates": [-131.17183651386316, -13.556881210886063]}}, {"type": "Feature", "properties": {"norad_id": 57490, "name": "FENGYUN 3F", "group": "weather", "lat": -14.45831148880271, "lon": 71.22117046180075, "alt_km": 830.7042564194016, "timestamp": "2025-12-26T21:25:52.649660+00:00", "meta": {"OBJECT_NAME": "FENGYUN 3F", "OBJECT_ID": "2023-111A", "EPOCH": "2025-12-26T14:44:06.614880", "MEAN_MOTION": 14.19897205, "ECCENTRICITY": 8.614e-05, "INCLINATION": 98.7065, "RA_OF_ASC_NODE": 68.6824, "ARG_OF_PERICENTER": 117.8701, "MEAN_ANOMALY": 242.2563, "EPHEMERIS_TYPE": 0, "CLASSIFICATION_TYPE": "U", "NORAD_CAT_ID": 57490, "ELEMENT_SET_NO": 999, "REV_AT_EPOCH": 12437, "BSTAR": 5.6989476e-05, "MEAN_MOTION_DOT": 7.7e-07, "MEAN_MOTION_DDOT": 0}, "tle": {"line1": "1 57490U 23111A   25360.61396545  .00000077  00000+0  56989-4 0  9992", "line2": "2 57490  98.7065  68.6824 0000861 117.8701 242.2563 14.19897205124373"}}, "geometry": {"type": "Point", "coordinates": [71.22117046180075, -14.45831148880271]}}, {"type": "Feature", "properties": {"norad_id": 58584, "name": "ARKTIKA-M 2", "group": "weather", "lat": 53.326992632177245, "lon": -143.95434818813274, "alt_km": 31236.613085502413, "timestamp": "2025-12-26T21:25:52.649676+00:00", "meta": {"OBJECT_NAME": "ARKTIKA-M 2", "OBJECT_ID": "2023-198A", "EPOCH": "2025-12-25T18:56:09.299328", "MEAN_MOTION": 2.00602256, "ECCENTRICITY": 0.686608, "INCLINATION": 63.2255, "RA_OF_ASC_NODE": 173.4714, "ARG_OF_PERICENTER": 268.0516, "MEAN_ANOMALY": 18.8422, "EPHEMERIS_TYPE": 0, "CLASSIFICATION_TYPE": "U", "NORAD_CAT_ID": 58584, "ELEMENT_SET_NO": 999, "REV_AT_EPOCH": 1484, "BSTAR": 0, "MEAN_MOTION_DOT": 2.31e-06, "MEAN_MOTION_DDOT": 0}, "tle": {"line1": "1 58584U 23198A   25359.78899652  .00000231  00000+0  00000+0 0  9995", "line2": "2 58584  63.2255 173.4714 6866080 268.0516  18.8422  2.00602256 14849"}}, "geometry": {"type": "Point", "coordinates": [-143.95434818813274, 53.326992632177245]}}, {"type": "Feature", "properties": {"norad_id": 58645, "name": "TIANMU-1 11", "group": "weather", "lat": -14.874519391008125, "lon": -161.69964997489458, "alt_km": 493.29102897410667, "timestamp": "2025-12-26T21:25:52.649688+00:00", "meta": {"OBJECT_NAME": "TIANMU-1 11", "OBJECT_ID": "2023-205A", "EPOCH": "2025-12-26T14:16:42.512736", "MEAN_MOTION": 15.24766803, "ECCENTRICITY": 0.00075835, "INCLINATION": 97.36, "RA_OF_ASC_NODE": 19.9749, "ARG_OF_PERICENTER": 250.9389, "MEAN_ANOMALY": 109.1027, "EPHEMERIS_TYPE": 0, "CLASSIFICATION_TYPE": "U", "NORAD_CAT_ID": 58645, "ELEMENT_SET_NO": 999, "REV_AT_EPOCH": 11120, "BSTAR": 0.00027575166, "MEAN_MOTION_DOT": 6.768e-05, "MEAN_MOTION_DDOT": 0}, "tle": {"line1": "1 58645U 23205A   25360.59493649  .00006768  00000+0  27575-3 0  9990", "line2": "2 58645  97.3600  19.9749 0007583 250.9389 109.1027 15.24766803111200"}}, "geometry": {"type": "Point", "coordinates": [-161.69964997489458, -14.874519391008125]}}, {"type": "Feature", "properties": {"norad_id": 58646, "name": "TIANMU-1 12", "group": "weather", "lat": 40.81964389350367, "lon": 13.65911176060438, "alt_km": 492.81476975883925, "timestamp": "2025-12-26T21:25:52.649700+00:00", "meta": {"OBJECT_NAME": "TIANMU-1 12", "OBJECT_ID": "2023-205B", "EPOCH": "2025-12-26T14:57:01.087200", "MEAN_MOTION": 15.24654046, "ECCENTRICITY": 0.00060919, "INCLINATION": 97.3588, "RA_OF_ASC_NODE": 19.8032, "ARG_OF_PERICENTER": 228.5191, "MEAN_ANOMALY": 131.5524, "EPHEMERIS_TYPE": 0, "CLASSIFICATION_TYPE": "U", "NORAD_CAT_ID": 58646, "ELEMENT_SET_NO": 999, "REV_AT_EPOCH": 11119, "BSTAR": 0.00027563857, "MEAN_MOTION_DOT": 6.74e-05, "MEAN_MOTION_DDOT": 0}, "tle": {"line1": "1 58646U 23205B   25360.62292925  .00006740  00000+0  27564-3 0  9997", "line2": "2 58646  97.3588  19.8032 0006091 228.5191 131.5524 15.24654046111199"}}, "geometry": {"type": "Point", "coordinates": [13.65911176060438, 40.81964389350367]}}, {"type": "Feature", "properties": {"norad_id": 58647, "name": "TIANMU-1 13", "group": "weather", "lat": -39.232959261508576, "lon": -165.78423721982688, "alt_km": 493.6938988484553, "timestamp": "2025-12-26T21:25:52.649710+00:00", "meta": {"OBJECT_NAME": "TIANMU-1 13", "OBJECT_ID": "2023-205C", "EPOCH": "2025-12-26T14:10:15.332736", "MEAN_MOTION": 15.2469765, "ECCENTRICITY": 0.00067883, "INCLINATION": 97.3616, "RA_OF_ASC_NODE": 19.9783, "ARG_OF_PERICENTER": 207.2064, "MEAN_ANOMALY": 152.8819, "EPHEMERIS_TYPE": 0, "CLASSIFICATION_TYPE": "U", "NORAD_CAT_ID": 58647, "ELEMENT_SET_NO": 999, "REV_AT_EPOCH": 11118, "BSTAR": 0.00027701833, "MEAN_MOTION_DOT": 6.784e-05, "MEAN_MOTION_DDOT": 0}, "tle": {"line1": "1 58647U 23205C   25360.59045524  .00006784  00000+0  27702-3 0  9997", "line2": "2 58647  97.3616  19.9783 0006788 207.2064 152.8819 15.24697650111182"}}, "geometry": {"type": "Point", "coordinates": [-165.78423721982688, -39.232959261508576]}}, {"type": "Feature", "properties": {"norad_id": 58648, "name": "TIANMU-1 14", "group": "weather", "lat": -49.74666347853162, "lon": 28.38636941532203, "alt_km": 499.3506463938493, "timestamp": "2025-12-26T21:25:52.649721+00:00", "meta": {"OBJECT_NAME": "TIANMU-1 14", "OBJECT_ID": "2023-205D", "EPOCH": "2025-12-26T15:21:04.737024", "MEAN_MOTION": 15.2468058, "ECCENTRICITY": 0.0007468, "INCLINATION": 97.3548, "RA_OF_ASC_NODE": 19.3624, "ARG_OF_PERICENTER": 213.1226, "MEAN_ANOMALY": 146.9545, "EPHEMERIS_TYPE": 0, "CLASSIFICATION_TYPE": "U", "NORAD_CAT_ID": 58648, "ELEMENT_SET_NO": 999, "REV_AT_EPOCH": 11119, "BSTAR": 0.00025884192, "MEAN_MOTION_DOT": 6.332e-05, "MEAN_MOTION_DDOT": 0}, "tle": {"line1": "1 58648U 23205D   25360.63963816  .00006332  00000+0  25884-3 0  9994", "line2": "2 58648  97.3548  19.3624 0007468 213.1226 146.9545 15.24680580111192"}}, "geometry": {"type": "Point", "coordinates": [28.38636941532203, -49.74666347853162]}}, {"type": "Feature", "properties": {"norad_id": 58660, "name": "TIANMU-1 19", "group": "weather", "lat": 16.476655948603465, "lon": 109.68930315895224, "alt_km": 485.5428180873487, "timestamp": "2025-12-26T21:25:52.649731+00:00", "meta": {"OBJECT_NAME": "TIANMU-1 19", "OBJECT_ID": "2023-208A", "EPOCH": "2025-12-26T13:30:02.826144", "MEAN_MOTION": 15.28102543, "ECCENTRICITY": 0.00048979, "INCLINATION": 97.4385, "RA_OF_ASC_NODE": 111.5741, "ARG_OF_PERICENTER": 194.9987, "MEAN_ANOMALY": 165.1108, "EPHEMERIS_TYPE": 0, "CLASSIFICATION_TYPE": "U", "NORAD_CAT_ID": 58660, "ELEMENT_SET_NO": 999, "REV_AT_EPOCH": 11093, "BSTAR": 0.00035351509, "MEAN_MOTION_DOT": 9.618e-05, "MEAN_MOTION_DDOT": 0}, "tle": {"line1": "1 58660U 23208A   25360.56253271  .00009618  00000+0  35352-3 0  9991", "line2": "2 58660  97.4385 111.5741 0004897 194.9987 165.1108 15.28102543110935"}}, "geometry": {"type": "Point", "coordinates": [109.68930315895224, 16.476655948603465]}}, {"type": "Feature", "properties": {"norad_id": 58661, "name": "TIANMU-1 20", "group": "weather", "lat": 28.173075405720873, "lon": -63.625210315463534, "alt_km": 474.1459306960669, "timestamp": "2025-12-26T21:25:52.649741+00:00", "meta": {"OBJECT_NAME": "TIANMU-1 20", "OBJECT_ID": "2023-208B", "EPOCH": "2025-12-26T14:29:21.281856", "MEAN_MOTION": 15.29294696, "ECCENTRICITY": 0.00069207, "INCLINATION": 97.4322, "RA_OF_ASC_NODE": 112.0766, "ARG_OF_PERICENTER": 209.1488, "MEAN_ANOMALY": 150.9367, "EPHEMERIS_TYPE": 0, "CLASSIFICATION_TYPE": "U", "NORAD_CAT_ID": 58661, "ELEMENT_SET_NO": 999, "REV_AT_EPOCH": 11101, "BSTAR": 0.00038847181, "MEAN_MOTION_DOT": 0.00010975, "MEAN_MOTION_DDOT": 0}, "tle": {"line1": "1 58661U 23208B   25360.60371854  .00010975  00000+0  38847-3 0  9995", "line2": "2 58661  97.4322 112.0766 0006920 209.1488 150.9367 15.29294696111015"}}, "geometry": {"type": "Point", "coordinates": [-63.625210315463534, 28.173075405720873]}}]}